[
  {
    "name": "PLEIADES NEO 3",
    "line1": "1 48268U 21034A   25361.31548618  .00000552  00000+0  76729-4 0  9997",
    "line2": "2 48268  97.8941  73.5473 0001376  88.7959 271.3411 14.81675248252206",
    "catNr": 48268
  },
  {
    "name": "PLEIADES NEO 4",
    "line1": "1 49070U 21073E   25361.28170985 -.00000425  00000+0 -47422-4 0  9995",
    "line2": "2 49070  97.8940  73.5097 0001309  89.4792 270.6571 14.81671464235912",
    "catNr": 49070
  }
]